NORAD_CAT_ID,OBJECT_NAME,OBJECT_TYPE,EPOCH,MEAN_MOTION,ECCENTRICITY,INCLINATION,RA_OF_ASC_NODE,ARG_OF_PERICENTER,MEAN_ANOMALY,BSTAR,MEAN_MOTION_DOT,MEAN_MOTION_DDOT,TLE_LINE0,TLE_LINE1,TLE_LINE2,SEMIMAJOR_AXIS,PERIOD,APOGEE,PERIGEE,DECAYED
54065.0,STARLINK-5187,PAYLOAD,2022-10-25 16:00:00,15.89998997,0.0031348,53.2174,123.2728,56.1924,168.9988,-0.0042913999999999,-0.01372602,0.00053383,0 STARLINK-5187,1 54065U 22136Q   22298.66667824 -.01372602  53383-3 -42914-2 0  9992,2 54065  53.2174 123.2728 0031348  56.1924 168.9988 15.89998997  1302,6680.4230000000025,90.566,323.2290000000001,281.346,0.0
54065.0,STARLINK-5187,PAYLOAD,2022-10-25 22:00:01,15.89340916,0.0027846999999999,53.2174,122.0067,56.7552,160.0247,-0.0044373,-0.01359326,0.00052121,0 STARLINK-5187,1 54065U 22136Q   22298.91668981 -.01359326  52121-3 -44373-2 0  9993,2 54065  53.2174 122.0067 0027847  56.7552 160.0247 15.89340916  1300,6682.267,90.604,322.74,285.523,0.0
54065.0,STARLINK-5187,PAYLOAD,2022-10-26 06:00:00,15.88471171,0.002501,53.2174,120.3167,56.6002,267.8965,-0.0046562,-0.01355656,0.00051446,0 STARLINK-5187,1 54065U 22136Q   22299.25001157 -.01355656  51446-3 -46562-2 0  9990,2 54065  53.2174 120.3167 0025010  56.6002 267.8965 15.88471171  1390,6684.706,90.653,323.289,289.8520000000001,0.0
54065.0,STARLINK-5187,PAYLOAD,2022-10-26 14:00:01,15.87567045,0.002172,53.2174,118.6303,56.0548,15.1937,-0.0046402,-0.01283251,0.00046163,0 STARLINK-5187,1 54065U 22136Q   22299.58334491 -.01283251  46163-3 -46402-2 0  9990,2 54065  53.2174 118.6303 0021720  56.0548  15.1937 15.87567045  1449,6687.243,90.705,323.633,294.584,0.0
54065.0,STARLINK-5187,PAYLOAD,2022-10-26 22:00:00,15.86725672,0.0018298,53.2176,116.9484,53.9948,122.9376,-0.005067,-0.01335635,0.00049274,0 STARLINK-5187,1 54065U 22136Q   22299.91667824 -.01335635  49274-3 -50670-2 0  9998,2 54065  53.2176 116.9484 0018298  53.9948 122.9376 15.86725672  1308,6689.607,90.753,323.713,299.231,0.0
54065.0,STARLINK-5187,PAYLOAD,2022-10-27 14:00:01,15.84984306,0.0012093,53.2171,113.5848,53.1793,332.0834,-0.0055128,-0.01168674,0.0,0 STARLINK-5187,1 54065U 22136Q   22300.58335648 -.01168674  00000-0 -55128-2 0  9991,2 54065  53.2171 113.5848 0012093  53.1793 332.0834 15.84984306  1309,6694.505999999999,90.853,324.467,308.275,0.0
54065.0,STARLINK-5187,PAYLOAD,2022-10-27 22:00:00,15.84121831,0.0008621,53.2174,111.9097,46.8466,80.9115,-0.0057869,-0.01192755,0.0,0 STARLINK-5187,1 54065U 22136Q   22300.91667824 -.01192755  00000-0 -57869-2 0  9993,2 54065  53.2174 111.9097 0008621  46.8466  80.9115 15.84121831  1305,6696.936,90.902,324.574,313.027,0.0
54065.0,STARLINK-5187,PAYLOAD,2022-10-28 14:00:01,15.82409329,0.0003177,53.2174,108.5591,359.9882,329.8315,-0.0065277,-0.01229187,0.0,0 STARLINK-5187,1 54065U 22136Q   22301.58335648 -.01229187  00000-0 -65277-2 0  9995,2 54065  53.2174 108.5591 0003177 359.9882 329.8315 15.82409329  1303,6701.766,91.0,325.761,321.502,0.0
54065.0,STARLINK-5187,PAYLOAD,2022-10-28 22:00:01,15.81486622,0.0003432,53.2173,106.8901,310.7272,118.5503,-0.0062976,-0.01145369,0.0,0 STARLINK-5187,1 54065U 22136Q   22301.91668981 -.01145369  00000-0 -62976-2 0  9993,2 54065  53.2173 106.8901 0003432 310.7272 118.5503 15.81486622  1818,6704.373000000001,91.054,328.539,323.937,0.0
54065.0,STARLINK-5187,PAYLOAD,2022-10-29 12:00:00,15.80095596,0.0006471,53.217,103.9687,273.2793,237.3767,-0.0078453999999999,-0.01316852,0.0,0 STARLINK-5187,1 54065U 22136Q   22302.50001157 -.01316852  00000-0 -78454-2 0  9990,2 54065  53.2170 103.9687 0006471 273.2793 237.3767 15.80095596  1302,6708.307,91.134,334.5130000000001,325.831,0.0
54065.0,STARLINK-5187,PAYLOAD,2022-10-29 22:00:01,15.78903306,0.0005445,53.2173,101.8898,270.7932,90.5278,-0.0072963,-0.01175427,0.0,0 STARLINK-5187,1 54065U 22136Q   22302.91668981 -.01175427  00000-0 -72963-2 0  9999,2 54065  53.2173 101.8898 0005445 270.7932  90.5278 15.78903306  1303,6711.684,91.203,337.2030000000001,329.894,0.0
54065.0,STARLINK-5187,PAYLOAD,2022-10-30 00:00:00,15.78717707,0.0004522,53.2172,101.4734,272.0015,203.1568,-0.0077223,-0.01226219,0.0,0 STARLINK-5187,1 54065U 22136Q   22303.00001157 -.01226219  00000-0 -77223-2 0  9996,2 54065  53.2172 101.4734 0004522 272.0015 203.1568 15.78717707  1985,6712.21,91.213,337.11,331.04,0.0
54065.0,STARLINK-5187,PAYLOAD,2022-10-30 14:00:01,15.77173212,0.0004521,53.2175,98.5654,269.9204,280.8207,-0.0079804,-0.01186461,0.0,0 STARLINK-5187,1 54065U 22136Q   22303.58334491 -.01186461  00000-0 -79804-2 0  9990,2 54065  53.2175  98.5654 0004521 269.9204 280.8207 15.77173212  1303,6716.590999999999,91.303,341.49300000000005,335.42,0.0
54065.0,STARLINK-5187,PAYLOAD,2022-10-30 22:00:01,15.76323978,2.5e-05,53.2172,96.9089,348.5148,295.4604,-0.0084597,-0.01205532,0.0,0 STARLINK-5187,1 54065U 22136Q   22303.91668981 -.01205532  00000-0 -84597-2 0  9997,2 54065  53.2172  96.9089 0000250 348.5148 295.4604 15.76323978  1308,6719.003000000002,91.352,341.036,340.7,0.0
54065.0,STARLINK-5187,PAYLOAD,2022-10-31 14:00:01,15.74570811,0.0001202,53.2172,93.5975,59.2721,47.8723,-0.0089177,-0.01179755,0.0,0 STARLINK-5187,1 54065U 22136Q   22304.58334491 -.01179755  00000-0 -89177-2 0  9993,2 54065  53.2172  93.5975 0001202  59.2721  47.8723 15.74570811  1305,6723.99,91.453,346.663,345.047,0.0
54065.0,STARLINK-5187,PAYLOAD,2022-10-31 22:00:01,15.73584448,0.0001113,53.2171,91.947,71.5034,125.7661,-0.0036854999999999,-0.00496585,0.0,0 STARLINK-5187,1 54065U 22136Q   22304.91668981 -.00496585  00000-0 -36855-2 0  9991,2 54065  53.2171  91.9470 0001113  71.5034 125.7661 15.73584448  1308,6726.799,91.511,349.413,347.916,0.0
54065.0,STARLINK-5187,PAYLOAD,2022-11-01 06:00:00,15.73289343,0.000126,53.2169,90.2964,56.9148,229.4529,-0.00035996,-0.00051025,0.0,0 STARLINK-5187,1 54065U 22136Q   22305.25001157 -.00051025  00000-0 -35996-3 0  9997,2 54065  53.2169  90.2964 0001260  56.9148 229.4529 15.73289343  2347,6727.64,91.528,350.353,348.658,0.0
54065.0,STARLINK-5187,PAYLOAD,2022-11-01 14:00:01,15.732412099999998,0.0001506999999999,53.216,88.6488,56.4382,318.9377,-0.00049095,-0.00069081,0.0,0 STARLINK-5187,1 54065U 22136Q   22305.58334491 -.00069081  00000-0 -49095-3 0  9999,2 54065  53.2160  88.6488 0001507  56.4382 318.9377 15.73241210  1300,6727.778,91.531,350.657,348.629,0.0
54065.0,STARLINK-5187,PAYLOAD,2022-11-01 22:00:00,15.73211479,0.0001528,53.2154,87.0001,47.0191,57.309,-0.00052525,-0.00073731,0.0,0 STARLINK-5187,1 54065U 22136Q   22305.91667824 -.00073731  00000-0 -52525-3 0  9994,2 54065  53.2154  87.0001 0001528  47.0191  57.3090 15.73211479  2440,6727.861999999999,91.533,350.755,348.699,0.0
54065.0,STARLINK-5187,PAYLOAD,2022-11-02 14:00:01,15.73144442,0.0001538,53.2164,83.7001,49.4871,232.6001,0.00036484,0.00050771,0.0,0 STARLINK-5187,1 54065U 22136Q   22306.58334491  .00050771  00000-0  36484-3 0  9992,2 54065  53.2164  83.7001 0001538  49.4871 232.6001 15.73144442  1305,6728.054,91.536,350.95300000000015,348.884,0.0
54065.0,STARLINK-5187,PAYLOAD,2022-11-02 22:00:00,15.73181881,0.0001698,53.2156,82.0516,40.7061,330.2341,0.00072297,0.00102006,0.0,0 STARLINK-5187,1 54065U 22136Q   22306.91667824  .00102006  00000-0  72297-3 0  9999,2 54065  53.2156  82.0516 0001698  40.7061 330.2341 15.73181881  1301,6727.946999999999,91.534,350.954,348.6690000000001,0.0
54065.0,STARLINK-5187,PAYLOAD,2022-11-03 08:00:01,15.73275123,0.0001472,53.2157,79.9875,45.1465,166.9896,0.00053524,0.00075418,0.0,0 STARLINK-5187,1 54065U 22136Q   22307.33334491  .00075418  00000-0  53524-3 0  9995,2 54065  53.2157  79.9875 0001472  45.1465 166.9896 15.73275123  2675,6727.681,91.529,350.536,348.556,0.0
54065.0,STARLINK-5187,PAYLOAD,2022-11-03 14:00:01,15.7334378,0.0001583,53.2155,78.7517,36.0647,152.8472,-0.00074483,-0.00104507,0.0,0 STARLINK-5187,1 54065U 22136Q   22307.58334491 -.00104507  00000-0 -74483-3 0  9993,2 54065  53.2155  78.7517 0001583  36.0647 152.8472 15.73343780  1305,6727.485,91.525,350.415,348.285,0.0
54065.0,STARLINK-5187,PAYLOAD,2022-11-03 22:00:00,15.73300865,0.0001664,53.2149,77.1022,28.1434,249.8299,-0.00038435,-0.00054449,0.0,0 STARLINK-5187,1 54065U 22136Q   22307.91667824 -.00054449  00000-0 -38435-3 0  9995,2 54065  53.2149  77.1022 0001664  28.1434 249.8299 15.73300865  1309,6727.608,91.527,350.592,348.353,0.0
54065.0,STARLINK-5187,PAYLOAD,2022-11-04 14:00:01,15.73216928,0.0001644,53.2154,73.8027,25.0252,70.9674,-7.3412e-05,-0.00010918,0.0,0 STARLINK-5187,1 54065U 22136Q   22308.58334491 -.00010918  00000-0 -73412-4 0  9998,2 54065  53.2154  73.8027 0001644  25.0252  70.9674 15.73216928  1301,6727.847,91.532,350.8180000000001,348.606,0.0
54065.0,STARLINK-5187,PAYLOAD,2022-11-04 22:00:01,15.73228589,0.0001884,53.2155,72.153,27.1514,157.7826,-0.00089712,-0.00124838,0.0,0 STARLINK-5187,1 54065U 22136Q   22308.91668981 -.00124838  00000-0 -89712-3 0  9995,2 54065  53.2155  72.1530 0001884  27.1514 157.7826 15.73228589  2910,6727.814,91.532,350.946,348.411,0.0
54065.0,STARLINK-5187,PAYLOAD,2022-11-05 14:00:01,15.73089918,0.0002035,53.2155,68.8541,31.1714,331.4936,0.00040935,0.00056951,0.0,0 STARLINK-5187,1 54065U 22136Q   22309.58335648  .00056951  00000-0  40935-3 0  9992,2 54065  53.2155  68.8541 0002035  31.1714 331.4936 15.73089918  1306,6728.209,91.54,351.4430000000001,348.705,0.0
54065.0,STARLINK-5187,PAYLOAD,2022-11-05 22:00:01,15.73151901,0.0002114,53.2153,67.2041,29.285,62.1943,0.00051956,0.00072783,0.0,0 STARLINK-5187,1 54065U 22136Q   22309.91668981  .00072783  00000-0  51956-3 0  9994,2 54065  53.2153  67.2041 0002114  29.2850  62.1943 15.73151901  1307,6728.031999999997,91.536,351.32,348.475,0.0
54065.0,STARLINK-5187,PAYLOAD,2022-11-06 14:00:01,15.73163859,0.0001652,53.2171,63.9031,34.544000000000004,234.7012,-0.0094205,-0.01173258,0.0,0 STARLINK-5187,1 54065U 22136Q   22310.58334491 -.01173258  00000-0 -94205-2 0  9990,2 54065  53.2171  63.9031 0001652  34.5440 234.7012 15.73163859  1308,6727.998000000001,91.535,350.975,348.75199999999984,0.0
